COSMOS 2576             
1 59773U 24092A   26068.82603826  .00015211  00000+0  56283-3 0  9991
2 59773  97.4253 186.0053 0005946 159.7731 200.3745 15.27760963101271
STARLINK-32740          
1 62754U 25014V   26068.24284773  .00039875  00000+0  14503-2 0  9991
2 62754  43.0001 156.5188 0001842 269.0252  91.0389 15.27588843 63199
